OBJECT_NAME,OBJECT_ID,EPOCH,MEAN_MOTION,ECCENTRICITY,INCLINATION,RA_OF_ASC_NODE,ARG_OF_PERICENTER,MEAN_ANOMALY,EPHEMERIS_TYPE,CLASSIFICATION_TYPE,NORAD_CAT_ID,ELEMENT_SET_NO,REV_AT_EPOCH,BSTAR,MEAN_MOTION_DOT,MEAN_MOTION_DDOT
CSG-3,2026-001A,2026-06-27T01:20:00.813408,14.82160118,.0001468,97.8888,1.5144,96.3497,263.7883,0,U,67304,999,2592,.45265E-4,.308E-5,0
STARLINK-36490,2026-002A,2026-06-26T23:01:17.560128,15.27578772,.0001665,43.0023,67.8785,276.0819,83.9843,0,U,67305,999,2785,.53295E-3,.14432E-3,0
STARLINK-36488,2026-002B,2026-06-27T04:00:03.000096,15.27538027,.0001502,43.0030,67.2924,275.9050,265.8616,0,U,67306,999,575,.28566E-2,.7909E-3,0
STARLINK-36481,2026-002C,2026-06-26T23:43:50.838240,15.27570541,.0001657,43.0009,68.1063,272.2054,87.8608,0,U,67307,999,2779,-.44404E-4,-.1484E-4,0
STARLINK-36449,2026-002D,2026-06-26T23:32:45.398400,15.27564496,.0000836,42.9996,68.0455,269.8215,90.2541,0,U,67308,999,2785,.10007E-2,.27365E-3,0
STARLINK-36482,2026-002E,2026-06-26T18:44:44.005632,15.27587521,.00016639,43.0005,69.1217,274.1522,85.9140,0,U,67309,999,2776,.56537E-3,.15332E-3,0
STARLINK-36491,2026-002F,2026-06-26T16:07:51.235392,15.27588975,.00022517,43.0034,70.0327,260.8138,99.2459,0,U,67310,999,2774,.49433561E-3,.13369E-3,0
STARLINK-36495,2026-002G,2026-06-26T23:12:25.496064,15.27605806,.0001496,43.0017,67.9376,274.7629,85.3052,0,U,67311,999,2795,.11317E-2,.31036E-3,0
STARLINK-36485,2026-002H,2026-06-26T16:35:24.700704,15.27606472,.0000128,43.0041,69.3074,126.3539,233.7324,0,U,67312,999,2775,.72842925E-3,.19853E-3,0
STARLINK-36445,2026-002J,2026-06-27T00:09:45.749664,15.27562998,.0001342,43.0006,68.2422,254.3233,105.7470,0,U,67313,999,2795,.90533E-3,.24721E-3,0
STARLINK-36476,2026-002K,2026-06-26T23:38:18.312288,15.27564813,.000099,42.9989,68.0706,281.5385,78.5355,0,U,67314,999,2778,.98746E-3,.26998E-3,0
STARLINK-36463,2026-002L,2026-06-26T16:52:04.238976,15.27587918,.00011399,43.0023,69.3921,233.6065,126.4681,0,U,67315,999,2781,.83010449E-3,.22656E-3,0
STARLINK-36461,2026-002M,2026-06-26T23:03:08.882208,15.27577072,.0001978,43.0026,67.8866,283.2472,76.8159,0,U,67316,999,2795,.74416E-3,.2027E-3,0
STARLINK-36450,2026-002N,2026-06-26T17:54:59.181120,15.27548892,.00011517,43.0023,69.7267,248.2500,111.8229,0,U,67317,999,2791,.67990736E-3,.18477E-3,0
STARLINK-36498,2026-002P,2026-06-26T23:45:42.581088,15.27568675,.0001272,43.0010,68.1154,256.2743,103.7967,0,U,67318,999,2785,.10646E-2,.29139E-3,0
STARLINK-36470,2026-002Q,2026-06-26T23:51:15.667776,15.27558204,.0001306,43.0004,68.1457,275.6182,84.4521,0,U,67319,999,2785,.10251E-2,.28036E-3,0
STARLINK-36500,2026-002R,2026-06-26T18:00:32.806944,15.27578701,.00012615,43.0041,69.7551,69.0681,291.0305,0,U,67320,999,2781,.11625356E-2,.31865E-3,0
STARLINK-36462,2026-002S,2026-06-26T17:43:52.539456,15.27551218,.00017016,43.0030,69.6701,262.2123,97.8535,0,U,67321,999,2775,.12094299E-3,.3064E-4,0
STARLINK-36434,2026-002T,2026-06-27T00:06:03.697344,15.27566832,.0001783,43.0024,68.2226,274.5663,85.4985,0,U,67322,999,2779,.99426E-3,.27188E-3,0
STARLINK-36497,2026-002U,2026-06-26T23:34:36.165792,15.27566282,.000107,43.0027,68.0537,267.5422,92.5308,0,U,67323,999,2785,.75391E-3,.20533E-3,0
STARLINK-36471,2026-002V,2026-06-25T23:41:53.267712,15.27603641,.00033789,43.0034,73.4822,155.2514,204.8500,0,U,67324,999,2764,.84537222E-3,.23092E-3,0
STARLINK-36473,2026-002W,2026-06-26T23:19:47.712864,15.27576654,.0000808,43.0008,67.9737,257.5679,102.5082,0,U,67325,999,2795,.10595E-3,.2654E-4,0
STARLINK-36430,2026-002X,2026-06-26T18:05:52.472256,15.27557824,.00011923,43.0022,68.9113,255.1218,104.9502,0,U,67326,999,2792,.62381727E-3,.16932E-3,0
STARLINK-36501,2026-002Y,2026-06-26T18:15:07.219008,15.27573191,.00013208,42.9984,68.9555,206.1908,153.8877,0,U,67327,999,2776,.74261447E-3,.20225E-3,0
STARLINK-36489,2026-002Z,2026-06-26T23:53:05.428608,15.27569913,.0001511,43.0009,68.1527,283.9849,76.0835,0,U,67328,999,2795,.6883E-4,.1632E-4,0
STARLINK-36496,2026-002AA,2026-06-26T23:30:54.153216,15.27571480,.0001295,43.0001,68.0306,259.8863,100.1842,0,U,67329,999,2777,.1046E-2,.28626E-3,0
STARLINK-36483,2026-002AB,2026-06-27T00:02:21.808320,15.27569859,.00014,43.0014,68.2005,269.6311,90.4380,0,U,67330,999,2795,.10978E-2,.30061E-3,0
STARLINK-36494,2026-002AC,2026-06-26T23:36:28.052928,15.27521663,.0001585,43.0015,68.0573,275.1876,84.8795,0,U,67331,999,2795,-.51793E-3,-.14461E-3,0
STARLINK-36492,2026-002AD,2026-06-26T17:56:49.641792,15.27552731,.00013261,43.0025,69.7319,272.3853,87.6847,0,U,67332,999,2791,.23961644E-3,.6332E-4,0
STARLINK-36427,2026-002AE,2026-06-26T23:40:09.458112,15.27558801,.0001111,43.0017,68.0701,275.6292,84.4433,0,U,67333,999,2785,.90629E-3,.24745E-3,0
