CSG-3                   
1 67304U 26001A   26178.05556497  .00000308  00000+0  45265-4 0  9990
2 67304  97.8888   1.5144 0001468  96.3497 263.7883 14.82160118 25929
STARLINK-36490          
1 67305U 26002A   26177.95923102  .00014432  00000+0  53295-3 0  9995
2 67305  43.0023  67.8785 0001665 276.0819  83.9843 15.27578772 27855
STARLINK-36488          
1 67306U 26002B   26178.16670139  .00079090  00000+0  28566-2 0  9992
2 67306  43.0030  67.2924 0001502 275.9050 265.8616 15.27538027  5751
STARLINK-36481          
1 67307U 26002C   26177.98878285 -.00001484  00000+0 -44404-4 0  9999
2 67307  43.0009  68.1063 0001657 272.2054  87.8608 15.27570541 27795
STARLINK-36449          
1 67308U 26002D   26177.98108100  .00027365  00000+0  10007-2 0  9996
2 67308  42.9996  68.0455 0000836 269.8215  90.2541 15.27564496 27855
STARLINK-36482          
1 67309U 26002E   26177.78106488  .00015332  00000+0  56537-3 0  9992
2 67309  43.0005  69.1217 0001663 274.1522  85.9140 15.27587521 27766
STARLINK-36491          
1 67310U 26002F   26177.67212078  .00013369  00000+0  49434-3 0  9991
2 67310  43.0034  70.0327 0002251 260.8138  99.2459 15.27588975 27745
STARLINK-36495          
1 67311U 26002G   26177.96696176  .00031036  00000+0  11317-2 0  9998
2 67311  43.0017  67.9376 0001496 274.7629  85.3052 15.27605806 27956
STARLINK-36485          
1 67312U 26002H   26177.69125811  .00019853  00000+0  72843-3 0  9997
2 67312  43.0041  69.3074 0000128 126.3539 233.7324 15.27606472 27757
STARLINK-36445          
1 67313U 26002J   26178.00677951  .00024721  00000+0  90533-3 0  9997
2 67313  43.0006  68.2422 0001342 254.3233 105.7470 15.27562998 27952
STARLINK-36476          
1 67314U 26002K   26177.98493417  .00026998  00000+0  98746-3 0  9999
2 67314  42.9989  68.0706 0000990 281.5385  78.5355 15.27564813 27780
STARLINK-36463          
1 67315U 26002L   26177.70282684  .00022656  00000+0  83010-3 0  9997
2 67315  43.0023  69.3921 0001139 233.6065 126.4681 15.27587918 27814
STARLINK-36461          
1 67316U 26002M   26177.96051947  .00020270  00000+0  74416-3 0  9992
2 67316  43.0026  67.8866 0001978 283.2472  76.8159 15.27577072 27956
STARLINK-36450          
1 67317U 26002N   26177.74651830  .00018477  00000+0  67991-3 0  9992
2 67317  43.0023  69.7267 0001151 248.2500 111.8229 15.27548892 27918
STARLINK-36498          
1 67318U 26002P   26177.99007617  .00029139  00000+0  10646-2 0  9999
2 67318  43.0010  68.1154 0001272 256.2743 103.7967 15.27568675 27858
STARLINK-36470          
1 67319U 26002Q   26177.99393134  .00028036  00000+0  10251-2 0  9999
2 67319  43.0004  68.1457 0001306 275.6182  84.4521 15.27558204 27856
STARLINK-36500          
1 67320U 26002R   26177.75037971  .00031865  00000+0  11625-2 0  9999
2 67320  43.0041  69.7551 0001261  69.0681 291.0305 15.27578701 27816
STARLINK-36462          
1 67321U 26002S   26177.73880254  .00003064  00000+0  12094-3 0  9990
2 67321  43.0030  69.6701 0001701 262.2123  97.8535 15.27551218 27752
STARLINK-36434          
1 67322U 26002T   26178.00420946  .00027188  00000+0  99426-3 0  9997
2 67322  43.0024  68.2226 0001783 274.5663  85.4985 15.27566832 27792
STARLINK-36497          
1 67323U 26002U   26177.98236303  .00020533  00000+0  75391-3 0  9998
2 67323  43.0027  68.0537 0001070 267.5422  92.5308 15.27566282 27857
STARLINK-36471          
1 67324U 26002V   26176.98742208  .00023092  00000+0  84537-3 0  9999
2 67324  43.0034  73.4822 0003378 155.2514 204.8500 15.27603641 27641
STARLINK-36473          
1 67325U 26002W   26177.97208001  .00002654  00000+0  10595-3 0  9992
2 67325  43.0008  67.9737 0000808 257.5679 102.5082 15.27576654 27955
STARLINK-36430          
1 67326U 26002X   26177.75407954  .00016932  00000+0  62382-3 0  9992
2 67326  43.0022  68.9113 0001192 255.1218 104.9502 15.27557824 27929
STARLINK-36501          
1 67327U 26002Y   26177.76050022  .00020225  00000+0  74261-3 0  9993
2 67327  42.9984  68.9555 0001320 206.1908 153.8877 15.27573191 27765
STARLINK-36489          
1 67328U 26002Z   26177.99520172  .00001632  00000+0  68830-4 0  9994
2 67328  43.0009  68.1527 0001511 283.9849  76.0835 15.27569913 27954
STARLINK-36496          
1 67329U 26002AA  26177.97979344  .00028626  00000+0  10460-2 0  9998
2 67329  43.0001  68.0306 0001295 259.8863 100.1842 15.27571480 27777
STARLINK-36483          
1 67330U 26002AB  26178.00164130  .00030061  00000+0  10978-2 0  9994
2 67330  43.0014  68.2005 0001400 269.6311  90.4380 15.27569859 27951
STARLINK-36494          
1 67331U 26002AC  26177.98365802 -.00014461  00000+0 -51793-3 0  9999
2 67331  43.0015  68.0573 0001585 275.1876  84.8795 15.27521663 27951
STARLINK-36492          
1 67332U 26002AD  26177.74779678  .00006332  00000+0  23962-3 0  9997
2 67332  43.0025  69.7319 0001326 272.3853  87.6847 15.27552731 27911
STARLINK-36427          
1 67333U 26002AE  26177.98622058  .00024745  00000+0  90629-3 0  9995
2 67333  43.0017  68.0701 0001111 275.6292  84.4433 15.27558801 27858
